[{"OBJECT_NAME":"STARLINK-5854","OBJECT_ID":"2023-037K","EPOCH":"2026-03-09T22:23:42.917568","MEAN_MOTION":14.98329785,"ECCENTRICITY":0.00026496,"INCLINATION":69.9996,"RA_OF_ASC_NODE":303.8424,"ARG_OF_PERICENTER":268.2364,"MEAN_ANOMALY":91.8491,"EPHEMERIS_TYPE":0,"CLASSIFICATION_TYPE":"U","NORAD_CAT_ID":55923,"ELEMENT_SET_NO":999,"REV_AT_EPOCH":16352,"BSTAR":-4.2582624e-5,"MEAN_MOTION_DOT":-6.01e-6,"MEAN_MOTION_DDOT":0},{"OBJECT_NAME":"NOAA 17 DEB","OBJECT_ID":"2002-032CQ","EPOCH":"2026-03-08T13:16:06.343680","MEAN_MOTION":14.94423569,"ECCENTRICITY":0.00133771,"INCLINATION":98.6934,"RA_OF_ASC_NODE":102.7142,"ARG_OF_PERICENTER":224.1091,"MEAN_ANOMALY":135.9061,"EPHEMERIS_TYPE":0,"CLASSIFICATION_TYPE":"U","NORAD_CAT_ID":48755,"ELEMENT_SET_NO":999,"REV_AT_EPOCH":26185,"BSTAR":0.0050463698,"MEAN_MOTION_DOT":0.00054808,"MEAN_MOTION_DDOT":0}]
